OBJECT_NAME,OBJECT_ID,EPOCH,MEAN_MOTION,ECCENTRICITY,INCLINATION,RA_OF_ASC_NODE,ARG_OF_PERICENTER,MEAN_ANOMALY,EPHEMERIS_TYPE,CLASSIFICATION_TYPE,NORAD_CAT_ID,ELEMENT_SET_NO,REV_AT_EPOCH,BSTAR,MEAN_MOTION_DOT,MEAN_MOTION_DDOT
ALOS-2,2014-029A,2026-06-13T23:03:00.571392,14.79478021,.00016033,97.9217,262.1697,90.4590,269.6805,0,U,39766,999,65110,.19860643E-3,.1432E-4,0
KAZEOSAT 2,2014-033A,2026-06-13T22:18:18.235008,14.85469383,.00081615,97.5411,4.7142,341.4520,18.6398,0,U,40010,999,64847,.13522525E-3,.1117E-4,0
HODOYOSHI-4,2014-033B,2026-06-13T22:35:04.496928,14.88124702,.00226836,97.5450,349.9209,319.8415,40.1125,0,U,40011,999,64832,.23835423E-3,.2152E-4,0
DEIMOS-2,2014-033D,2026-06-13T21:37:01.535808,14.93717096,.00017535,97.5843,39.5058,49.4031,310.7342,0,U,40013,999,63723,.93620901E-4,.936E-5,0
HODOYOSHI-3,2014-033F,2026-06-13T22:50:14.208576,14.85382759,.00330013,97.6414,328.1224,7.9860,352.1874,0,U,40015,999,64714,.11942194E-3,.985E-5,0
SPOT 7,2014-034A,2026-06-13T23:06:07.896960,14.60955643,.00011945,98.0636,227.5370,89.7380,270.3958,0,U,40053,999,63666,.89973487E-4,.395E-5,0
SKYSAT-B,2014-037D,2026-06-13T21:32:17.714400,14.88020363,.00043035,98.3838,123.6748,296.0318,64.0453,0,U,40072,999,64547,.14516355E-3,.1271E-4,0
WORLDVIEW-3 (WV-3),2014-048A,2026-06-13T22:23:40.164000,14.85017291,.00012422,97.8566,239.8108,30.2061,329.9225,0,U,40115,999,64142,.99940841E-4,.799E-5,0
GAOFEN-2,2014-049A,2026-06-13T22:23:39.772608,14.80894507,.00060252,98.0117,229.1430,239.3281,120.7338,0,U,40118,999,63875,.75614293E-4,.531E-5,0
YAOGAN-21,2014-053A,2026-06-13T22:48:23.130144,15.26328552,.00100138,97.1479,205.3240,102.9001,257.3358,0,U,40143,999,65446,.21624185E-3,.5553E-4,0
YAOGAN-22,2014-063A,2026-06-13T21:58:18.593472,13.15530985,.00062658,100.7720,316.1344,192.6422,167.4533,0,U,40275,999,55938,.43378719E-4,-.3E-6,0
ASNARO,2014-070A,2026-06-13T22:22:30.446112,15.19389509,.00053685,97.3462,241.1339,174.6979,185.4314,0,U,40298,999,64351,.31250884E-3,.655E-4,0
YAOGAN-24,2014-072A,2026-06-13T23:08:22.814016,14.76220356,.00125386,98.1477,302.2750,275.3268,84.6510,0,U,40310,999,62324,.13947073E-3,.913E-5,0
CBERS 4,2014-079A,2026-06-13T23:17:16.176768,14.35507848,.00019171,98.3539,221.9026,67.1990,292.9398,0,U,40336,999,60349,.23949662E-4,.27E-6,0
YAOGAN-26,2014-088A,2026-06-13T23:09:06.306912,15.47237996,.00062679,97.0635,165.2488,74.5126,285.6816,0,U,40362,999,63720,.57506188E-3,.29271E-3,0
SMAP,2015-003A,2026-06-13T22:25:47.535744,14.63364090,.00012967,98.1276,172.0752,95.2217,264.9133,0,U,40376,999,60714,.856598E-4,.396E-5,0
KOMPSAT-3A,2015-014A,2026-06-13T22:59:03.585696,15.53857787,.0056191,97.6879,156.0839,186.2224,173.8338,0,U,40536,999,62131,.39439283E-3,.27117E-3,0
SENTINEL-2A,2015-028A,2026-06-13T22:16:16.766976,14.30813454,.00011052,98.5690,239.8255,90.6186,269.5124,0,U,40697,999,57326,-.4391015E-4,-.159E-5,0
GAOFEN-8,2015-030A,2026-06-13T21:59:04.190208,15.45852563,.00084034,97.6904,358.0908,198.4120,161.6825,0,U,40701,999,61094,.53042356E-3,.25731E-3,0
CARBONITE 1 (CBNT-1),2015-032D,2026-06-13T22:40:57.687168,14.83579998,.00133287,97.6502,343.1479,309.9629,50.0414,0,U,40718,999,58886,.22569366E-3,.1811E-4,0
YAOGAN-27,2015-040A,2026-06-13T23:42:19.517760,13.16069971,.00076109,100.1146,151.5088,218.2540,141.8034,0,U,40878,999,51724,-.42654319E-3,-.204E-5,0
GAOFEN-9 01,2015-047A,2026-06-13T23:00:22.473216,14.82878314,.00281694,97.6276,200.8000,148.0531,212.2398,0,U,40894,999,57971,.12146877E-3,.94E-5,0
YAOGAN-28,2015-064A,2026-06-13T21:59:09.529728,15.27385406,.00103354,97.3066,303.2443,194.8532,165.2406,0,U,41026,999,59018,.27434742E-3,.7294E-4,0
YAOGAN-29,2015-069A,2026-06-13T22:32:39.148800,14.83081359,.00027602,98.0032,193.5668,59.4092,300.7393,0,U,41038,999,57014,-.6834194E-5,-.11E-5,0
KENT RIDGE 1,2015-077B,2026-06-13T16:37:26.874624,15.23112968,.0008249,14.9789,291.9825,189.0994,170.9179,0,U,41167,999,58056,.14065697E-3,.4186E-4,0
GAOFEN-4,2015-083A,2026-06-13T22:12:39.081312,1.00270461,.00043564,0.3476,83.8653,114.0924,143.1497,0,U,41194,999,3849,0,-.325E-5,0
JASON-3,2016-002A,2026-06-13T23:21:50.958144,12.87627989,.00085499,66.0400,132.5914,272.9309,87.0732,0,U,41240,999,48683,-.16870117E-4,-.66E-6,0
SENTINEL-3A,2016-011A,2026-06-13T22:05:27.399264,14.26739157,.00013847,98.6249,232.3509,102.7487,257.3848,0,U,41335,999,53759,.61916809E-4,.106E-5,0
ZIYUAN 3-02 (ZY 3-02),2016-033A,2026-06-13T23:12:33.988320,15.21453338,.00112752,97.3842,240.8030,302.6531,57.3616,0,U,41556,999,55749,.25664325E-3,.5707E-4,0
CARTOSAT-2C,2016-040A,2026-06-13T23:09:26.568576,15.19293262,.00103111,97.4493,224.9871,141.4325,218.7648,0,U,41599,999,55322,.17791068E-3,.369E-4,0
