ALOS-2                  
1 39766U 14029A   26164.96042328  .00001432  00000+0  19861-3 0  9997
2 39766  97.9217 262.1697 0001603  90.4590 269.6805 14.79478021651100
KAZEOSAT 2              
1 40010U 14033A   26164.92937772  .00001117  00000+0  13523-3 0  9997
2 40010  97.5411   4.7142 0008161 341.4520  18.6398 14.85469383648472
HODOYOSHI-4             
1 40011U 14033B   26164.94102427  .00002152  00000+0  23835-3 0  9998
2 40011  97.5450 349.9209 0022683 319.8415  40.1125 14.88124702648329
DEIMOS-2                
1 40013U 14033D   26164.90071222  .00000936  00000+0  93621-4 0  9993
2 40013  97.5843  39.5058 0001753  49.4031 310.7342 14.93717096637231
HODOYOSHI-3             
1 40015U 14033F   26164.95155334  .00000985  00000+0  11942-3 0  9996
2 40015  97.6414 328.1224 0033001   7.9860 352.1874 14.85382759647146
SPOT 7                  
1 40053U 14034A   26164.96259140  .00000395  00000+0  89973-4 0  9995
2 40053  98.0636 227.5370 0001194  89.7380 270.3958 14.60955643636666
SKYSAT-B                
1 40072U 14037D   26164.89742725  .00001271  00000+0  14516-3 0  9991
2 40072  98.3838 123.6748 0004303 296.0318  64.0453 14.88020363645477
WORLDVIEW-3 (WV-3)      
1 40115U 14048A   26164.93310375  .00000799  00000+0  99941-4 0  9998
2 40115  97.8566 239.8108 0001242  30.2061 329.9225 14.85017291641423
GAOFEN-2                
1 40118U 14049A   26164.93309922  .00000531  00000+0  75614-4 0  9993
2 40118  98.0117 229.1430 0006025 239.3281 120.7338 14.80894507638753
YAOGAN-21               
1 40143U 14053A   26164.95026771  .00005553  00000+0  21624-3 0  9996
2 40143  97.1479 205.3240 0010013 102.9001 257.3358 15.26328552654462
YAOGAN-22               
1 40275U 14063A   26164.91549298 -.00000030  00000+0  43379-4 0  9991
2 40275 100.7720 316.1344 0006265 192.6422 167.4533 13.15530985559383
ASNARO                  
1 40298U 14070A   26164.93229683  .00006550  00000+0  31251-3 0  9996
2 40298  97.3462 241.1339 0005368 174.6979 185.4314 15.19389509643519
YAOGAN-24               
1 40310U 14072A   26164.96415294  .00000913  00000+0  13947-3 0  9990
2 40310  98.1477 302.2750 0012538 275.3268  84.6510 14.76220356623244
CBERS 4                 
1 40336U 14079A   26164.97032612  .00000027  00000+0  23950-4 0  9997
2 40336  98.3539 221.9026 0001917  67.1990 292.9398 14.35507848603496
YAOGAN-26               
1 40362U 14088A   26164.96465633  .00029271  00000+0  57506-3 0  9993
2 40362  97.0635 165.2488 0006267  74.5126 285.6816 15.47237996637204
SMAP                    
1 40376U 15003A   26164.93457796  .00000396  00000+0  85660-4 0  9994
2 40376  98.1276 172.0752 0001296  95.2217 264.9133 14.63364090607145
KOMPSAT-3A              
1 40536U 15014A   26164.95768039  .00027117  00000+0  39439-3 0  9993
2 40536  97.6879 156.0839 0056191 186.2224 173.8338 15.53857787621317
SENTINEL-2A             
1 40697U 15028A   26164.92797184 -.00000159  00000+0 -43910-4 0  9995
2 40697  98.5690 239.8255 0001105  90.6186 269.5124 14.30813454573261
GAOFEN-8                
1 40701U 15030A   26164.91602072  .00025731  00000+0  53042-3 0  9991
2 40701  97.6904 358.0908 0008403 198.4120 161.6825 15.45852563610945
CARBONITE 1 (CBNT-1)    
1 40718U 15032D   26164.94511212  .00001811  00000+0  22569-3 0  9992
2 40718  97.6502 343.1479 0013328 309.9629  50.0414 14.83579998588869
YAOGAN-27               
1 40878U 15040A   26164.98772590 -.00000204  00000+0 -42654-3 0  9994
2 40878 100.1146 151.5088 0007610 218.2540 141.8034 13.16069971517249
GAOFEN-9 01             
1 40894U 15047A   26164.95859344  .00000940  00000+0  12147-3 0  9998
2 40894  97.6276 200.8000 0028169 148.0531 212.2398 14.82878314579714
YAOGAN-28               
1 41026U 15064A   26164.91608252  .00007294  00000+0  27435-3 0  9996
2 41026  97.3066 303.2443 0010335 194.8532 165.2406 15.27385406590187
YAOGAN-29               
1 41038U 15069A   26164.93934200 -.00000110  00000+0 -68342-5 0  9997
2 41038  98.0032 193.5668 0002760  59.4092 300.7393 14.83081359570146
KENT RIDGE 1            
1 41167U 15077B   26164.69267216  .00004186  00000+0  14066-3 0  9995
2 41167  14.9789 291.9825 0008249 189.0994 170.9179 15.23112968580564
GAOFEN-4                
1 41194U 15083A   26164.92545233 -.00000325  00000+0  00000+0 0  9997
2 41194   0.3476  83.8653 0004356 114.0924 143.1497  1.00270461 38497
JASON-3                 
1 41240U 16002A   26164.97350646 -.00000066  00000+0 -16870-4 0  9998
2 41240  66.0400 132.5914 0008549 272.9309  87.0732 12.87627989486837
SENTINEL-3A             
1 41335U 16011A   26164.92045601  .00000106  00000+0  61917-4 0  9995
2 41335  98.6249 232.3509 0001384 102.7487 257.3848 14.26739157537596
ZIYUAN 3-02 (ZY 3-02)   
1 41556U 16033A   26164.96706005  .00005707  00000+0  25664-3 0  9990
2 41556  97.3842 240.8030 0011275 302.6531  57.3616 15.21453338557492
CARTOSAT-2C             
1 41599U 16040A   26164.96489084  .00003690  00000+0  17791-3 0  9991
2 41599  97.4493 224.9871 0010311 141.4325 218.7648 15.19293262553228
